start=new Date('2023-04-11T00:00:00.000Z').valueOf();
sats=[{"ARG_OF_PERICENTER":"96.5163","TLE_LINE1":"1 52300U 22041AR  23100.31217930  .00001122  00000-0  88579-4 0  9998","ECCENTRICITY":"0.00014070","COUNTRY_CODE":"US","PERIOD":"95.438","INCLINATION":"53.2190","FILE":"3885195","OBJECT_TYPE":"PAYLOAD","SITE":"AFETR","SEMIMAJOR_AXIS":"6917.893","RCS_SIZE":"LARGE","GP_ID":"229850399","REF_FRAME":"TEME","NORAD_CAT_ID":"52300","RA_OF_ASC_NODE":"197.2979","EPHEMERIS_TYPE":"0","LAUNCH_DATE":"2022-04-21","TLE_LINE2":"2 52300  53.2190 197.2979 0001407  96.5163 263.5989 15.08835832 55047","MEAN_MOTION_DDOT":"0.0000000000000","TIME_SYSTEM":"UTC","CENTER_NAME":"EARTH","MEAN_ELEMENT_THEORY":"SGP4","BSTAR":"0.00008857900000","APOAPSIS":"540.731","PERIAPSIS":"538.785","MEAN_ANOMALY":"263.5989","CLASSIFICATION_TYPE":"U","EPOCH":"2023-04-10T07:29:32.291520","ELEMENT_SET_NO":"999","MEAN_MOTION":"15.08835832","DECAY_DATE":null,"OBJECT_ID":"2022-041AR","REV_AT_EPOCH":"5504","OBJECT_NAME":"STARLINK-3769","MEAN_MOTION_DOT":"0.00001122"},{"FILE":"3885195","PERIOD":"95.437","INCLINATION":"53.2140","TLE_LINE1":"1 52301U 22041AS  23100.26433991  .00003682  00000-0  24929-3 0  9991","ECCENTRICITY":"0.00015170","ARG_OF_PERICENTER":"72.9303","COUNTRY_CODE":"US","LAUNCH_DATE":"2022-04-21","EPHEMERIS_TYPE":"0","RA_OF_ASC_NODE":"197.5113","NORAD_CAT_ID":"52301","REF_FRAME":"TEME","RCS_SIZE":"LARGE","SEMIMAJOR_AXIS":"6917.874","OBJECT_TYPE":"PAYLOAD","SITE":"AFETR","GP_ID":"229850149","APOAPSIS":"540.789","BSTAR":"0.00024929000000","PERIAPSIS":"538.690","MEAN_ANOMALY":"287.1855","MEAN_ELEMENT_THEORY":"SGP4","MEAN_MOTION_DDOT":"0.0000000000000","CENTER_NAME":"EARTH","TIME_SYSTEM":"UTC","TLE_LINE2":"2 52301  53.2140 197.5113 0001517  72.9303 287.1855 15.08842010 53815","MEAN_MOTION_DOT":"0.00003682","OBJECT_ID":"2022-041AS","DECAY_DATE":null,"OBJECT_NAME":"STARLINK-3768","REV_AT_EPOCH":"5381","MEAN_MOTION":"15.08842010","ELEMENT_SET_NO":"999","CLASSIFICATION_TYPE":"U","EPOCH":"2023-04-10T06:20:38.968224"},{"PERIAPSIS":"538.641","MEAN_ANOMALY":"285.1211","BSTAR":"0.00015339000000","APOAPSIS":"540.815","MEAN_ELEMENT_THEORY":"SGP4","MEAN_MOTION_DDOT":"0.0000000000000","TIME_SYSTEM":"UTC","CENTER_NAME":"EARTH","TLE_LINE2":"2 52302  53.2164 187.6407 0001571  74.9955 285.1211 15.08845617 53947","MEAN_MOTION_DOT":"0.00002154","REV_AT_EPOCH":"5394","OBJECT_NAME":"STARLINK-3564","OBJECT_ID":"2022-041AT","DECAY_DATE":null,"ELEMENT_SET_NO":"999","MEAN_MOTION":"15.08845617","CLASSIFICATION_TYPE":"U","EPOCH":"2023-04-10T05:39:34.565472","FILE":"3885195","INCLINATION":"53.2164","PERIOD":"95.437","COUNTRY_CODE":"US","ARG_OF_PERICENTER":"74.9955","TLE_LINE1":"1 52302U 22041AT  23100.23581673  .00002154  00000-0  15339-3 0  9998","ECCENTRICITY":"0.00015710","LAUNCH_DATE":"2022-04-21","EPHEMERIS_TYPE":"0","RA_OF_ASC_NODE":"187.6407","NORAD_CAT_ID":"52302","REF_FRAME":"TEME","GP_ID":"229848899","SITE":"AFETR","OBJECT_TYPE":"PAYLOAD","RCS_SIZE":"LARGE","SEMIMAJOR_AXIS":"6917.863"},{"MEAN_MOTION":"15.08837789","ELEMENT_SET_NO":"999","CLASSIFICATION_TYPE":"U","EPOCH":"2023-04-10T07:34:50.106144","MEAN_MOTION_DOT":"0.00004033","OBJECT_ID":"2022-041AU","DECAY_DATE":null,"OBJECT_NAME":"STARLINK-3742","REV_AT_EPOCH":"5504","CENTER_NAME":"EARTH","MEAN_MOTION_DDOT":"0.0000000000000","TIME_SYSTEM":"UTC","TLE_LINE2":"2 52303  53.2151 197.2754 0001235 100.5257 259.5874 15.08837789 55048","APOAPSIS":"540.607","BSTAR":"0.00027133000000","MEAN_ANOMALY":"259.5874","PERIAPSIS":"538.898","MEAN_ELEMENT_THEORY":"SGP4","REF_FRAME":"TEME","NORAD_CAT_ID":"52303","SEMIMAJOR_AXIS":"6917.887","RCS_SIZE":"LARGE","OBJECT_TYPE":"PAYLOAD","SITE":"AFETR","GP_ID":"229849649","LAUNCH_DATE":"2022-04-21","EPHEMERIS_TYPE":"0","RA_OF_ASC_NODE":"197.2754","PERIOD":"95.438","INCLINATION":"53.2151","ECCENTRICITY":"0.00012350","TLE_LINE1":"1 52303U 22041AU  23100.31585771  .00004033  00000-0  27133-3 0  9994","ARG_OF_PERICENTER":"100.5257","COUNTRY_CODE":"US","FILE":"3885195"},{"FILE":"3885363","INCLINATION":"53.2143","PERIOD":"95.437","COUNTRY_CODE":"US","ECCENTRICITY":"0.00013920","TLE_LINE1":"1 52304U 22041AV  23100.62957539  .00007561  00000-0  49246-3 0  9992","ARG_OF_PERICENTER":"86.5307","LAUNCH_DATE":"2022-04-21","EPHEMERIS_TYPE":"0","RA_OF_ASC_NODE":"185.8723","REF_FRAME":"TEME","NORAD_CAT_ID":"52304","GP_ID":"229880363","RCS_SIZE":"LARGE","SEMIMAJOR_AXIS":"6917.835","SITE":"AFETR","OBJECT_TYPE":"PAYLOAD","PERIAPSIS":"538.737","MEAN_ANOMALY":"273.5845","APOAPSIS":"540.662","BSTAR":"0.00049246000000","MEAN_ELEMENT_THEORY":"SGP4","TIME_SYSTEM":"UTC","MEAN_MOTION_DDOT":"0.0000000000000","CENTER_NAME":"EARTH","TLE_LINE2":"2 52304  53.2143 185.8723 0001392  86.5307 273.5845 15.08855009 54006","MEAN_MOTION_DOT":"0.00007561","OBJECT_NAME":"STARLINK-3744","REV_AT_EPOCH":"5400","DECAY_DATE":null,"OBJECT_ID":"2022-041AV","MEAN_MOTION":"15.08855009","ELEMENT_SET_NO":"999","CLASSIFICATION_TYPE":"U","EPOCH":"2023-04-10T15:06:35.313696"},{"TLE_LINE2":"2 52305  53.2159 197.6604 0001527  92.6423 267.4744 15.08840651 55031","CENTER_NAME":"EARTH","MEAN_MOTION_DDOT":"0.0000000000000","TIME_SYSTEM":"UTC","MEAN_ELEMENT_THEORY":"SGP4","BSTAR":"0.00024967000000","APOAPSIS":"540.800","MEAN_ANOMALY":"267.4744","PERIAPSIS":"538.687","CLASSIFICATION_TYPE":"U","EPOCH":"2023-04-10T06:04:46.226784","ELEMENT_SET_NO":"999","MEAN_MOTION":"15.08840651","DECAY_DATE":null,"OBJECT_ID":"2022-041AW","REV_AT_EPOCH":"5503","OBJECT_NAME":"STARLINK-3724","MEAN_MOTION_DOT":"0.00003688","ARG_OF_PERICENTER":"92.6423","ECCENTRICITY":"0.00015270","TLE_LINE1":"1 52305U 22041AW  23100.25331281  .00003688  00000-0  24967-3 0  9991","COUNTRY_CODE":"US","PERIOD":"95.438","INCLINATION":"53.2159","FILE":"3885292","OBJECT_TYPE":"PAYLOAD","SITE":"AFETR","SEMIMAJOR_AXIS":"6917.878","RCS_SIZE":"LARGE","GP_ID":"229855149","NORAD_CAT_ID":"52305","REF_FRAME":"TEME","EPHEMERIS_TYPE":"0","RA_OF_ASC_NODE":"197.6604","LAUNCH_DATE":"2022-04-21"},{"CENTER_NAME":"EARTH","MEAN_MOTION_DDOT":"0.0000000000000","TIME_SYSTEM":"UTC","TLE_LINE2":"2 52306  53.2175 187.6730 0001587  84.7006 275.4167 15.08839271 55162","APOAPSIS":"540.845","BSTAR":"0.00011250000000","MEAN_ANOMALY":"275.4167","PERIAPSIS":"538.650","MEAN_ELEMENT_THEORY":"SGP4","MEAN_MOTION":"15.08839271","ELEMENT_SET_NO":"999","CLASSIFICATION_TYPE":"U","EPOCH":"2023-04-10T05:28:59.100384","MEAN_MOTION_DOT":"0.00001503","DECAY_DATE":null,"OBJECT_ID":"2022-041AX","OBJECT_NAME":"STARLINK-3747","REV_AT_EPOCH":"5516","PERIOD":"95.438","INCLINATION":"53.2175","ECCENTRICITY":"0.00015870","TLE_LINE1":"1 52306U 22041AX  23100.22846181  .00001503  00000-0  11250-3 0  9994","ARG_OF_PERICENTER":"84.7006","COUNTRY_CODE":"US","FILE":"3885195","REF_FRAME":"TEME","NORAD_CAT_ID":"52306","SEMIMAJOR_AXIS":"6917.883","RCS_SIZE":"LARGE","SITE":"AFETR","OBJECT_TYPE":"PAYLOAD","GP_ID":"229849399","LAUNCH_DATE":"2022-04-21","EPHEMERIS_TYPE":"0","RA_OF_ASC_NODE":"187.6730"},{"MEAN_ELEMENT_THEORY":"SGP4","PERIAPSIS":"538.762","MEAN_ANOMALY":"252.7026","APOAPSIS":"540.723","BSTAR":"0.00003971900000","TLE_LINE2":"2 52307  53.2157 197.3127 0001417 107.4121 252.7026 15.08840863 53826","TIME_SYSTEM":"UTC","MEAN_MOTION_DDOT":"0.0000000000000","CENTER_NAME":"EARTH","OBJECT_NAME":"STARLINK-3755","REV_AT_EPOCH":"5382","OBJECT_ID":"2022-041AY","DECAY_DATE":null,"MEAN_MOTION_DOT":"0.00000344","CLASSIFICATION_TYPE":"U","EPOCH":"2023-04-10T07:24:13.961952","MEAN_MOTION":"15.08840863","ELEMENT_SET_NO":"999","FILE":"3885195","COUNTRY_CODE":"US","TLE_LINE1":"1 52307U 22041AY  23100.30849493  .00000344  00000-0  39719-4 0  9996","ECCENTRICITY":"0.00014170","ARG_OF_PERICENTER":"107.4121","INCLINATION":"53.2157","PERIOD":"95.438","RA_OF_ASC_NODE":"197.3127","EPHEMERIS_TYPE":"0","LAUNCH_DATE":"2022-04-21","GP_ID":"229849150","SEMIMAJOR_AXIS":"6917.878","RCS_SIZE":"LARGE","OBJECT_TYPE":"PAYLOAD","SITE":"AFETR","REF_FRAME":"TEME","NORAD_CAT_ID":"52307"},{"CLASSIFICATION_TYPE":"U","EPOCH":"2023-04-10T06:53:46.093920","MEAN_MOTION":"15.08833153","ELEMENT_SET_NO":"999","DECAY_DATE":null,"OBJECT_ID":"2022-041AZ","OBJECT_NAME":"STARLINK-3745","REV_AT_EPOCH":"5517","MEAN_MOTION_DOT":"0.00002548","TLE_LINE2":"2 52308  53.2163 187.4083 0000788  96.3880 263.7202 15.08833153 55175","MEAN_MOTION_DDOT":"0.0000000000000","TIME_SYSTEM":"UTC","CENTER_NAME":"EARTH","MEAN_ELEMENT_THEORY":"SGP4","APOAPSIS":"540.311","BSTAR":"0.00017813000000","MEAN_ANOMALY":"263.7202","PERIAPSIS":"539.221","RCS_SIZE":"LARGE","SEMIMAJOR_AXIS":"6917.901","OBJECT_TYPE":"PAYLOAD","SITE":"AFETR","GP_ID":"229850400","REF_FRAME":"TEME","NORAD_CAT_ID":"52308","RA_OF_ASC_NODE":"187.4083","EPHEMERIS_TYPE":"0","LAUNCH_DATE":"2022-04-21","ECCENTRICITY":"0.00007880","TLE_LINE1":"1 52308U 22041AZ  23100.28733905  .00002548  00000-0  17813-3 0  9992","ARG_OF_PERICENTER":"96.3880","COUNTRY_CODE":"US","PERIOD":"95.438","INCLINATION":"53.2163","FILE":"3885195"},{"MEAN_ELEMENT_THEORY":"SGP4","APOAPSIS":"540.374","BSTAR":"0.00019501000000","PERIAPSIS":"539.115","MEAN_ANOMALY":"266.0621","TLE_LINE2":"2 52309  53.2147 187.0940 0000910  94.0476 266.0621 15.08840198 55188","MEAN_MOTION_DDOT":"0.0000000000000","CENTER_NAME":"EARTH","TIME_SYSTEM":"UTC","DECAY_DATE":null,"OBJECT_ID":"2022-041BA","OBJECT_NAME":"STARLINK-3756","REV_AT_EPOCH":"5518","MEAN_MOTION_DOT":"0.00002817","CLASSIFICATION_TYPE":"U","EPOCH":"2023-04-10T08:34:27.108480","MEAN_MOTION":"15.08840198","ELEMENT_SET_NO":"999","FILE":"3885195","TLE_LINE1":"1 52309U 22041BA  23100.35725820  .00002817  00000-0  19501-3 0  9993","ECCENTRICITY":"0.00009100","ARG_OF_PERICENTER":"94.0476","COUNTRY_CODE":"US","PERIOD":"95.438","INCLINATION":"53.2147","RA_OF_ASC_NODE":"187.0940","EPHEMERIS_TYPE":"0","LAUNCH_DATE":"2022-04-21","RCS_SIZE":"LARGE","SEMIMAJOR_AXIS":"6917.880","OBJECT_TYPE":"PAYLOAD","SITE":"AFETR","GP_ID":"229850150","NORAD_CAT_ID":"52309","REF_FRAME":"TEME"}];
